{
  "type": "FeatureCollection",
  "features": [
    {
      "type": "Feature",
      "properties": {
        "norad_id": 36559,
        "name": "COSMOS 2251 DEB",
        "group": "cosmos-2251-debris",
        "lat": -9.692250352921226,
        "lon": -160.9824491005754,
        "alt_km": 1056.8857714723117,
        "timestamp": "2025-12-08T23:34:04.369208+00:00",
        "meta_object_name": "COSMOS 2251 DEB",
        "meta_object_id": "1993-036BDV",
        "meta_epoch": "2025-12-08T03:45:01.813536",
        "meta_mean_motion": 13.95135838,
        "meta_eccentricity": 0.02600272,
        "meta_inclination": 74.1301,
        "meta_ra_of_asc_node": 17.6431,
        "meta_arg_of_pericenter": 51.8718,
        "meta_mean_anomaly": 310.5544,
        "meta_ephemeris_type": 0,
        "meta_classification_type": "U",
        "meta_norad_cat_id": 36559,
        "meta_element_set_no": 999,
        "meta_rev_at_epoch": 81030,
        "meta_bstar": 0.0033662346,
        "meta_mean_motion_dot": 6.006e-05,
        "meta_mean_motion_ddot": 0,
        "tle_line1": "1 36559U 93036BDV 25342.15627099  .00006006  00000+0  33662-2 0  9997",
        "tle_line2": "2 36559  74.1301  17.6431 0260027  51.8718 310.5544 13.95135838810305"
      },
      "geometry": {
        "type": "Point",
        "coordinates": [
          -160.9824491005754,
          -9.692250352921226
        ]
      }
    },
    {
      "type": "Feature",
      "properties": {
        "norad_id": 36614,
        "name": "COSMOS 2251 DEB",
        "group": "cosmos-2251-debris",
        "lat": -30.387567493058885,
        "lon": 11.437176094027524,
        "alt_km": 689.2919908383874,
        "timestamp": "2025-12-08T23:34:04.369219+00:00",
        "meta_object_name": "COSMOS 2251 DEB",
        "meta_object_id": "1993-036BEC",
        "meta_epoch": "2025-12-07T20:17:29.491872",
        "meta_mean_motion": 14.60174339,
        "meta_eccentricity": 0.00163717,
        "meta_inclination": 74.0208,
        "meta_ra_of_asc_node": 183.9343,
        "meta_arg_of_pericenter": 254.1253,
        "meta_mean_anomaly": 105.8109,
        "meta_ephemeris_type": 0,
        "meta_classification_type": "U",
        "meta_norad_cat_id": 36614,
        "meta_element_set_no": 999,
        "meta_rev_at_epoch": 65541,
        "meta_bstar": 0.0021436205,
        "meta_mean_motion_dot": 0.00010332,
        "meta_mean_motion_ddot": 0,
        "tle_line1": "1 36614U 93036BEC 25341.84548023  .00010332  00000+0  21436-2 0  9996",
        "tle_line2": "2 36614  74.0208 183.9343 0016371 254.1253 105.8109 14.60174339655417"
      },
      "geometry": {
        "type": "Point",
        "coordinates": [
          11.437176094027524,
          -30.387567493058885
        ]
      }
    },
    {
      "type": "Feature",
      "properties": {
        "norad_id": 36622,
        "name": "COSMOS 2251 DEB",
        "group": "cosmos-2251-debris",
        "lat": 57.571671316158216,
        "lon": 179.66958989386336,
        "alt_km": 668.0557126217855,
        "timestamp": "2025-12-08T23:34:04.369229+00:00",
        "meta_object_name": "COSMOS 2251 DEB",
        "meta_object_id": "1993-036BEL",
        "meta_epoch": "2025-12-07T18:00:44.362080",
        "meta_mean_motion": 14.76130008,
        "meta_eccentricity": 0.00687085,
        "meta_inclination": 74.0127,
        "meta_ra_of_asc_node": 155.2579,
        "meta_arg_of_pericenter": 291.6324,
        "meta_mean_anomaly": 67.7541,
        "meta_ephemeris_type": 0,
        "meta_classification_type": "U",
        "meta_norad_cat_id": 36622,
        "meta_element_set_no": 999,
        "meta_rev_at_epoch": 66676,
        "meta_bstar": 0.0010654006,
        "meta_mean_motion_dot": 7.621e-05,
        "meta_mean_motion_ddot": 0,
        "tle_line1": "1 36622U 93036BEL 25341.75051345  .00007621  00000+0  10654-2 0  9998",
        "tle_line2": "2 36622  74.0127 155.2579 0068708 291.6324  67.7541 14.76130008666763"
      },
      "geometry": {
        "type": "Point",
        "coordinates": [
          179.66958989386336,
          57.571671316158216
        ]
      }
    },
    {
      "type": "Feature",
      "properties": {
        "norad_id": 36632,
        "name": "COSMOS 2251 DEB",
        "group": "cosmos-2251-debris",
        "lat": -48.73744476006995,
        "lon": -79.7211044354249,
        "alt_km": 758.2910920613294,
        "timestamp": "2025-12-08T23:34:04.369239+00:00",
        "meta_object_name": "COSMOS 2251 DEB",
        "meta_object_id": "1993-036BEW",
        "meta_epoch": "2025-12-08T03:50:26.997216",
        "meta_mean_motion": 14.43133085,
        "meta_eccentricity": 0.00317609,
        "meta_inclination": 74.0032,
        "meta_ra_of_asc_node": 300.8928,
        "meta_arg_of_pericenter": 49.809,
        "meta_mean_anomaly": 310.5839,
        "meta_ephemeris_type": 0,
        "meta_classification_type": "U",
        "meta_norad_cat_id": 36632,
        "meta_element_set_no": 999,
        "meta_rev_at_epoch": 65149,
        "meta_bstar": 0.0011897932,
        "meta_mean_motion_dot": 3.995e-05,
        "meta_mean_motion_ddot": 0,
        "tle_line1": "1 36632U 93036BEW 25342.16003469  .00003995  00000+0  11898-2 0  9990",
        "tle_line2": "2 36632  74.0032 300.8928 0031760  49.8090 310.5839 14.43133085651491"
      },
      "geometry": {
        "type": "Point",
        "coordinates": [
          -79.7211044354249,
          -48.73744476006995
        ]
      }
    },
    {
      "type": "Feature",
      "properties": {
        "norad_id": 37084,
        "name": "COSMOS 2251 DEB",
        "group": "cosmos-2251-debris",
        "lat": -64.36681509347768,
        "lon": 25.759642571715577,
        "alt_km": 502.9733862287667,
        "timestamp": "2025-12-08T23:34:04.369249+00:00",
        "meta_object_name": "COSMOS 2251 DEB",
        "meta_object_id": "1993-036BFE",
        "meta_epoch": "2025-12-06T06:27:50.366016",
        "meta_mean_motion": 15.00839572,
        "meta_eccentricity": 0.00980116,
        "meta_inclination": 74.0252,
        "meta_ra_of_asc_node": 174.6261,
        "meta_arg_of_pericenter": 256.595,
        "meta_mean_anomaly": 102.4298,
        "meta_ephemeris_type": 0,
        "meta_classification_type": "U",
        "meta_norad_cat_id": 37084,
        "meta_element_set_no": 999,
        "meta_rev_at_epoch": 66170,
        "meta_bstar": 0.00083053394,
        "meta_mean_motion_dot": 0.00011674,
        "meta_mean_motion_ddot": 0,
        "tle_line1": "1 37084U 93036BFE 25340.26933294  .00011674  00000+0  83053-3 0  9995",
        "tle_line2": "2 37084  74.0252 174.6261 0098011 256.5950 102.4298 15.00839572661708"
      },
      "geometry": {
        "type": "Point",
        "coordinates": [
          25.759642571715577,
          -64.36681509347768
        ]
      }
    },
    {
      "type": "Feature",
      "properties": {
        "norad_id": 37085,
        "name": "COSMOS 2251 DEB",
        "group": "cosmos-2251-debris",
        "lat": 61.56363153325053,
        "lon": 12.113688819316742,
        "alt_km": 429.1178946608561,
        "timestamp": "2025-12-08T23:34:04.369260+00:00",
        "meta_object_name": "COSMOS 2251 DEB",
        "meta_object_id": "1993-036BFF",
        "meta_epoch": "2025-12-02T23:36:37.668384",
        "meta_mean_motion": 15.39020756,
        "meta_eccentricity": 0.0022856,
        "meta_inclination": 73.9503,
        "meta_ra_of_asc_node": 237.2473,
        "meta_arg_of_pericenter": 76.375,
        "meta_mean_anomaly": 284,
        "meta_ephemeris_type": 0,
        "meta_classification_type": "U",
        "meta_norad_cat_id": 37085,
        "meta_element_set_no": 999,
        "meta_rev_at_epoch": 66987,
        "meta_bstar": 0.0028642077,
        "meta_mean_motion_dot": 0.00113322,
        "meta_mean_motion_ddot": 0,
        "tle_line1": "1 37085U 93036BFF 25336.98376931  .00113322  00000+0  28642-2 0  9994",
        "tle_line2": "2 37085  73.9503 237.2473 0022856  76.3750 284.0000 15.39020756669879"
      },
      "geometry": {
        "type": "Point",
        "coordinates": [
          12.113688819316742,
          61.56363153325053
        ]
      }
    },
    {
      "type": "Feature",
      "properties": {
        "norad_id": 37089,
        "name": "COSMOS 2251 DEB",
        "group": "cosmos-2251-debris",
        "lat": 9.333978917510242,
        "lon": 155.53364948091271,
        "alt_km": 758.8478539692151,
        "timestamp": "2025-12-08T23:34:04.369271+00:00",
        "meta_object_name": "COSMOS 2251 DEB",
        "meta_object_id": "1993-036BFK",
        "meta_epoch": "2025-12-08T05:20:37.786848",
        "meta_mean_motion": 14.52807892,
        "meta_eccentricity": 0.01353256,
        "meta_inclination": 74.0364,
        "meta_ra_of_asc_node": 154.2692,
        "meta_arg_of_pericenter": 255.408,
        "meta_mean_anomaly": 103.2044,
        "meta_ephemeris_type": 0,
        "meta_classification_type": "U",
        "meta_norad_cat_id": 37089,
        "meta_element_set_no": 999,
        "meta_rev_at_epoch": 66044,
        "meta_bstar": 0.0030256992,
        "meta_mean_motion_dot": 0.00014025,
        "meta_mean_motion_ddot": 0,
        "tle_line1": "1 37089U 93036BFK 25342.22265957  .00014025  00000+0  30257-2 0  9992",
        "tle_line2": "2 37089  74.0364 154.2692 0135325 255.4080 103.2044 14.52807892660445"
      },
      "geometry": {
        "type": "Point",
        "coordinates": [
          155.53364948091271,
          9.333978917510242
        ]
      }
    }
  ]
}